OBJECT_NAME,OBJECT_ID,EPOCH,MEAN_MOTION,ECCENTRICITY,INCLINATION,RA_OF_ASC_NODE,ARG_OF_PERICENTER,MEAN_ANOMALY,EPHEMERIS_TYPE,CLASSIFICATION_TYPE,NORAD_CAT_ID,ELEMENT_SET_NO,REV_AT_EPOCH,BSTAR,MEAN_MOTION_DOT,MEAN_MOTION_DDOT
GOMX-1,2013-066Q,2026-06-17T19:10:16.788288,14.69462510,.0130175,97.6475,9.2230,75.5802,285.9811,0,U,39430,999,67000,.23977E-3,.1567E-4,0
CUBEBUG-2 (LO-74),2013-066AA,2026-06-17T19:12:02.706048,14.93766530,.005835,97.8909,117.7807,27.1118,333.3127,0,U,39440,999,67708,.37357E-3,.4032E-4,0
NEE-02 KRYSAOR,2013-066AB,2026-06-17T19:33:33.439968,14.86620574,.0067631,97.8894,108.0251,68.2048,292.6346,0,U,39441,999,67629,.19322E-3,.1728E-4,0
FUNCUBE-1 (AO-73),2013-066AE,2026-06-17T10:54:09.970848,15.09493115,.00356534,97.8279,139.9057,199.8844,160.0997,0,U,39444,999,67970,.31860589E-3,.5112E-4,0
UWE-3,2013-066AG,2026-06-17T19:36:47.286144,14.97029101,.0047468,97.8697,124.8951,319.0483,40.7177,0,U,39446,999,67767,.31732E-3,.3675E-4,0
SMDC ONE 2.4,2013-072H,2026-06-17T08:00:28.158336,15.18182685,.01453545,120.4933,352.6488,19.1811,341.4663,0,U,39469,999,11785,.30481887E-3,.7871E-4,0
COSMOS 2488 (RODNIK-S 7),2013-076A,2026-06-17T20:13:36.307776,12.42905678,.0020864,82.4822,168.2864,93.9611,266.3854,0,U,39483,999,56597,-.54945E-3,-.66E-6,0
COSMOS 2489 (RODNIK-S 8),2013-076B,2026-06-17T19:37:54.840576,12.42879654,.0022683,82.4859,169.6808,93.9331,266.4343,0,U,39484,999,56602,-.18887E-3,-.16E-6,0
COSMOS 2490 (RODNIK-S 9),2013-076C,2026-06-17T18:57:26.209152,12.42878097,.0022751,82.4806,167.7654,108.8438,251.5111,0,U,39485,999,56595,-.4522E-3,-.53E-6,0
KAZEOSAT 1,2014-024A,2026-06-17T20:30:12.335616,14.42080062,.0001359,98.3207,241.2850,73.8838,286.2501,0,U,39731,999,63865,.36275E-4,.76E-6,0
COSMOS 2496 (RODNIK-S 10),2014-028A,2026-06-17T19:52:11.294400,12.42878532,.0021354,82.4457,108.3302,77.4912,282.8555,0,U,39761,999,54759,.25244E-3,.45E-6,0
COSMOS 2497 (RODNIK-S 11),2014-028B,2026-06-17T19:16:34.878144,12.42894339,.0021911,82.4505,110.0358,72.7806,287.5670,0,U,39762,999,54759,.66772E-3,.103E-5,0
COSMOS 2498 (RODNIK-S 12),2014-028C,2026-06-17T20:40:10.400736,12.42979790,.0022623,82.4465,108.4862,72.3088,288.0459,0,U,39763,999,54763,-.42703E-3,-.49E-6,0
HODOYOSHI-4,2014-033B,2026-06-17T20:10:58.208736,14.88126574,.0022534,97.5446,353.6315,306.2554,53.6581,0,U,40011,999,64890,.27774E-4,.204E-5,0
UNISAT-6,2014-033C,2026-06-17T09:39:12.738528,14.88246960,.00462463,97.7880,321.1100,68.6169,291.9973,0,U,40012,999,64619,.20611546E-3,.1884E-4,0
DEIMOS-2,2014-033D,2026-06-17T20:28:22.242144,14.93725128,.0001374,97.5823,43.3185,50.3909,309.7433,0,U,40013,999,63782,.10535E-3,.1061E-4,0
BUGSAT-1 (TITA),2014-033E,2026-06-17T19:53:02.537376,15.15590009,.0028055,98.0432,261.4146,175.9290,184.2175,0,U,40014,999,65593,.19532E-3,.3667E-4,0
SAUDISAT 4,2014-033G,2026-06-17T09:20:42.099360,14.79544974,.00461531,97.7583,314.5169,73.3541,287.2731,0,U,40016,999,64610,.75814831E-4,.526E-5,0
APRIZESAT 9,2014-033J,2026-06-17T19:38:36.110400,14.74215291,.0065736,97.9063,302.0016,197.1174,162.7818,0,U,40018,999,64365,.89358E-4,.558E-5,0
BRITE-CA1 (TORONTO),2014-033L,2026-06-17T13:57:07.795872,14.72677156,.0077216,97.9740,297.5019,275.7297,83.5111,0,U,40020,999,64227,.94199E-4,.574E-5,0
DUCHIFAT-1,2014-033M,2026-06-17T17:24:13.189824,15.64688216,.0002741,98.0453,227.9612,116.8844,243.2694,0,U,40021,999,65583,.92235E-3,.90047E-3,0
NANOSATC-BR1,2014-033Q,2026-06-17T15:54:25.297920,15.31469597,.0004432,98.0714,201.0929,161.0618,199.0787,0,U,40024,999,65405,.44008E-3,.13299E-3,0
