GOMX-1                  
1 39430U 13066Q   26168.79880542  .00001567  00000+0  23977-3 0  9990
2 39430  97.6475   9.2230 0130175  75.5802 285.9811 14.69462510670004
CUBEBUG-2 (LO-74)       
1 39440U 13066AA  26168.80003132  .00004032  00000+0  37357-3 0  9992
2 39440  97.8909 117.7807 0058350  27.1118 333.3127 14.93766530677080
NEE-02 KRYSAOR          
1 39441U 13066AB  26168.81497037  .00001728  00000+0  19322-3 0  9996
2 39441  97.8894 108.0251 0067631  68.2048 292.6346 14.86620574676291
FUNCUBE-1 (AO-73)       
1 39444U 13066AE  26168.45428207  .00005112  00000+0  31861-3 0  9995
2 39444  97.8279 139.9057 0035653 199.8844 160.0997 15.09493115679706
UWE-3                   
1 39446U 13066AG  26168.81721396  .00003675  00000+0  31732-3 0  9991
2 39446  97.8697 124.8951 0047468 319.0483  40.7177 14.97029101677674
SMDC ONE 2.4            
1 39469U 13072H   26168.33365924  .00007871  00000+0  30482-3 0  9994
2 39469 120.4933 352.6488 0145354  19.1811 341.4663 15.18182685117858
COSMOS 2488 (RODNIK-S 7)
1 39483U 13076A   26168.84278134 -.00000066  00000+0 -54945-3 0  9997
2 39483  82.4822 168.2864 0020864  93.9611 266.3854 12.42905678565979
COSMOS 2489 (RODNIK-S 8)
1 39484U 13076B   26168.81799584 -.00000016  00000+0 -18887-3 0  9992
2 39484  82.4859 169.6808 0022683  93.9331 266.4343 12.42879654566028
COSMOS 2490 (RODNIK-S 9)
1 39485U 13076C   26168.78988668 -.00000053  00000+0 -45220-3 0  9994
2 39485  82.4806 167.7654 0022751 108.8438 251.5111 12.42878097565958
KAZEOSAT 1              
1 39731U 14024A   26168.85430944  .00000076  00000+0  36275-4 0  9993
2 39731  98.3207 241.2850 0001359  73.8838 286.2501 14.42080062638650
COSMOS 2496 (RODNIK-S *)
1 39761U 14028A   26168.82790850  .00000045  00000+0  25244-3 0  9991
2 39761  82.4457 108.3302 0021354  77.4912 282.8555 12.42878532547597
COSMOS 2497 (RODNIK-S *)
1 39762U 14028B   26168.80318146  .00000103  00000+0  66772-3 0  9990
2 39762  82.4505 110.0358 0021911  72.7806 287.5670 12.42894339547595
COSMOS 2498 (RODNIK-S *)
1 39763U 14028C   26168.86123149 -.00000049  00000+0 -42703-3 0  9993
2 39763  82.4465 108.4862 0022623  72.3088 288.0459 12.42979790547632
HODOYOSHI-4             
1 40011U 14033B   26168.84095149  .00000204  00000+0  27774-4 0  9996
2 40011  97.5446 353.6315 0022534 306.2554  53.6581 14.88126574648901
UNISAT-6                
1 40012U 14033C   26168.40223077  .00001884  00000+0  20612-3 0  9990
2 40012  97.7880 321.1100 0046246  68.6169 291.9973 14.88246960646198
DEIMOS-2                
1 40013U 14033D   26168.85303521  .00001061  00000+0  10535-3 0  9993
2 40013  97.5823  43.3185 0001374  50.3909 309.7433 14.93725128637826
BUGSAT-1 (TITA)         
1 40014U 14033E   26168.82850159  .00003667  00000+0  19532-3 0  9995
2 40014  98.0432 261.4146 0028055 175.9290 184.2175 15.15590009655935
SAUDISAT 4              
1 40016U 14033G   26168.38937615  .00000526  00000+0  75815-4 0  9999
2 40016  97.7583 314.5169 0046153  73.3541 287.2731 14.79544974646104
APRIZESAT 9             
1 40018U 14033J   26168.81847350  .00000558  00000+0  89358-4 0  9997
2 40018  97.9063 302.0016 0065736 197.1174 162.7818 14.74215291643651
BRITE-CA1 (TORONTO)     
1 40020U 14033L   26168.58134023  .00000574  00000+0  94199-4 0  9997
2 40020  97.9740 297.5019 0077216 275.7297  83.5111 14.72677156642275
DUCHIFAT-1              
1 40021U 14033M   26168.72515266  .00090047  00000+0  92235-3 0  9998
2 40021  98.0453 227.9612 0002741 116.8844 243.2694 15.64688216655837
NANOSATC-BR1            
1 40024U 14033Q   26168.66279280  .00013299  00000+0  44008-3 0  9996
2 40024  98.0714 201.0929 0004432 161.0618 199.0787 15.31469597654051
